ELECTRON R/B            
1 67558U 26015C   26049.32087184  .04659008 -14365-5  13845-2 0  9999
2 67558  88.9652 279.7712 0271928 169.1240 191.6088 15.77035683  4077
ELECTRON KICK STAGE R/B 
1 67559U 26015D   26049.15553889  .00043524 -17507-6  72918-3 0  9996
2 67559  89.0495 280.2198 0527356 241.5782 113.1339 14.68537296  3922
STARLINK-36426          
1 67560U 26014AA  26049.16784247  .00273655  00000+0  17708-2 0  9999
2 67560  97.2843 293.1878 0001301 122.0971 238.0421 15.75275604  5494
STARLINK-36621          
1 67561U 26016A   26049.16018729  .00141417  00000+0  93159-3 0  9992
2 67561  97.2834 108.6008 0001204  58.8071 301.3312 15.75234413  3729
STARLINK-36398          
1 67562U 26016B   26049.10407070  .00151807  00000+0  99863-3 0  9990
2 67562  97.2837 108.5222 0001331 101.0722 259.0693 15.75236989  3715
STARLINK-36403          
1 67563U 26016C   26049.13081318  .00160706  00000+0  82206-3 0  9998
2 67563  97.2832 108.6427 0001156  76.9117 283.2280 15.80877600  3721
STARLINK-36593          
1 67564U 26016D   26049.12958889  .00173563  00000+0  88604-3 0  9997
2 67564  97.2829 108.6440 0001619  68.2745 291.8696 15.80887540  3728
STARLINK-35725          
1 67565U 26016E   26049.14783787  .00148578  00000+0  97757-3 0  9990
2 67565  97.2835 108.6175 0001571  84.6192 275.5253 15.75241683  3720
STARLINK-36394          
1 67566U 26016F   26049.14960090  .00122055  00000+0  80652-3 0  9993
2 67566  97.2844 108.6120 0001187  51.8138 308.3234 15.75219305  3720
STARLINK-36352          
1 67567U 26016G   26049.12592644  .00213668  00000+0  10849-2 0  9999
2 67567  97.2833 108.6453 0001054 101.3592 258.7795 15.80902355  3726
STARLINK-36435          
1 67568U 26016H   26049.12367020  .00301319  00000+0  15098-2 0  9990
2 67568  97.2832 108.6480 0000749 140.9960 219.1363 15.80964595  3720
STARLINK-36575          
1 67569U 26016J   26049.12246505  .00104707  00000+0  53921-3 0  9995
2 67569  97.2829 108.6537 0001840 121.3001 238.8447 15.80881463  3725
