CCSDS_OMM_VERS = 2.0
CREATION_DATE  = 
ORIGINATOR     = 

OBJECT_NAME    = ELECTRON R/B
OBJECT_ID      = 2026-015C
CENTER_NAME    = EARTH
REF_FRAME      = TEME
TIME_SYSTEM    = UTC
MEAN_ELEMENT_THEORY = SGP/SGP4

EPOCH          = 2026-02-18T07:42:03.326976
MEAN_MOTION    = 15.77035683
ECCENTRICITY   = .0271928
INCLINATION    = 88.9652
RA_OF_ASC_NODE = 279.7712
ARG_OF_PERICENTER = 169.1240
MEAN_ANOMALY   = 191.6088

EPHEMERIS_TYPE = 0
CLASSIFICATION_TYPE = U
NORAD_CAT_ID   = 67558
ELEMENT_SET_NO = 999
REV_AT_EPOCH   = 407
BSTAR          = .13845E-2
MEAN_MOTION_DOT = .4659008E-1
MEAN_MOTION_DDOT = -.14365E-5

CCSDS_OMM_VERS = 2.0
CREATION_DATE  = 
ORIGINATOR     = 

OBJECT_NAME    = ELECTRON KICK STAGE R/B
OBJECT_ID      = 2026-015D
CENTER_NAME    = EARTH
REF_FRAME      = TEME
TIME_SYSTEM    = UTC
MEAN_ELEMENT_THEORY = SGP/SGP4

EPOCH          = 2026-02-18T03:43:58.560096
MEAN_MOTION    = 14.68537296
ECCENTRICITY   = .0527356
INCLINATION    = 89.0495
RA_OF_ASC_NODE = 280.2198
ARG_OF_PERICENTER = 241.5782
MEAN_ANOMALY   = 113.1339

EPHEMERIS_TYPE = 0
CLASSIFICATION_TYPE = U
NORAD_CAT_ID   = 67559
ELEMENT_SET_NO = 999
REV_AT_EPOCH   = 392
BSTAR          = .72918E-3
MEAN_MOTION_DOT = .43524E-3
MEAN_MOTION_DDOT = -.17507E-6

CCSDS_OMM_VERS = 2.0
CREATION_DATE  = 
ORIGINATOR     = 

OBJECT_NAME    = STARLINK-36426
OBJECT_ID      = 2026-014AA
CENTER_NAME    = EARTH
REF_FRAME      = TEME
TIME_SYSTEM    = UTC
MEAN_ELEMENT_THEORY = SGP/SGP4

EPOCH          = 2026-02-18T04:01:41.589408
MEAN_MOTION    = 15.75275604
ECCENTRICITY   = .0001301
INCLINATION    = 97.2843
RA_OF_ASC_NODE = 293.1878
ARG_OF_PERICENTER = 122.0971
MEAN_ANOMALY   = 238.0421

EPHEMERIS_TYPE = 0
CLASSIFICATION_TYPE = U
NORAD_CAT_ID   = 67560
ELEMENT_SET_NO = 999
REV_AT_EPOCH   = 549
BSTAR          = .17708E-2
MEAN_MOTION_DOT = .273655E-2
MEAN_MOTION_DDOT = 0

CCSDS_OMM_VERS = 2.0
CREATION_DATE  = 
ORIGINATOR     = 

OBJECT_NAME    = STARLINK-36621
OBJECT_ID      = 2026-016A
CENTER_NAME    = EARTH
REF_FRAME      = TEME
TIME_SYSTEM    = UTC
MEAN_ELEMENT_THEORY = SGP/SGP4

EPOCH          = 2026-02-18T03:50:40.181856
MEAN_MOTION    = 15.75234413
ECCENTRICITY   = .0001204
INCLINATION    = 97.2834
RA_OF_ASC_NODE = 108.6008
ARG_OF_PERICENTER = 58.8071
MEAN_ANOMALY   = 301.3312

EPHEMERIS_TYPE = 0
CLASSIFICATION_TYPE = U
NORAD_CAT_ID   = 67561
ELEMENT_SET_NO = 999
REV_AT_EPOCH   = 372
BSTAR          = .93159E-3
MEAN_MOTION_DOT = .141417E-2
MEAN_MOTION_DDOT = 0

CCSDS_OMM_VERS = 2.0
CREATION_DATE  = 
ORIGINATOR     = 

OBJECT_NAME    = STARLINK-36398
OBJECT_ID      = 2026-016B
CENTER_NAME    = EARTH
REF_FRAME      = TEME
TIME_SYSTEM    = UTC
MEAN_ELEMENT_THEORY = SGP/SGP4

EPOCH          = 2026-02-18T02:29:51.708480
MEAN_MOTION    = 15.75236989
ECCENTRICITY   = .0001331
INCLINATION    = 97.2837
RA_OF_ASC_NODE = 108.5222
ARG_OF_PERICENTER = 101.0722
MEAN_ANOMALY   = 259.0693

EPHEMERIS_TYPE = 0
CLASSIFICATION_TYPE = U
NORAD_CAT_ID   = 67562
ELEMENT_SET_NO = 999
REV_AT_EPOCH   = 371
BSTAR          = .99863E-3
MEAN_MOTION_DOT = .151807E-2
MEAN_MOTION_DDOT = 0

CCSDS_OMM_VERS = 2.0
CREATION_DATE  = 
ORIGINATOR     = 

OBJECT_NAME    = STARLINK-36403
OBJECT_ID      = 2026-016C
CENTER_NAME    = EARTH
REF_FRAME      = TEME
TIME_SYSTEM    = UTC
MEAN_ELEMENT_THEORY = SGP/SGP4

EPOCH          = 2026-02-18T03:08:22.258752
MEAN_MOTION    = 15.80877600
ECCENTRICITY   = .0001156
INCLINATION    = 97.2832
RA_OF_ASC_NODE = 108.6427
ARG_OF_PERICENTER = 76.9117
MEAN_ANOMALY   = 283.2280

EPHEMERIS_TYPE = 0
CLASSIFICATION_TYPE = U
NORAD_CAT_ID   = 67563
ELEMENT_SET_NO = 999
REV_AT_EPOCH   = 372
BSTAR          = .82206E-3
MEAN_MOTION_DOT = .160706E-2
MEAN_MOTION_DDOT = 0

CCSDS_OMM_VERS = 2.0
CREATION_DATE  = 
ORIGINATOR     = 

OBJECT_NAME    = STARLINK-36593
OBJECT_ID      = 2026-016D
CENTER_NAME    = EARTH
REF_FRAME      = TEME
TIME_SYSTEM    = UTC
MEAN_ELEMENT_THEORY = SGP/SGP4

EPOCH          = 2026-02-18T03:06:36.480096
MEAN_MOTION    = 15.80887540
ECCENTRICITY   = .0001619
INCLINATION    = 97.2829
RA_OF_ASC_NODE = 108.6440
ARG_OF_PERICENTER = 68.2745
MEAN_ANOMALY   = 291.8696

EPHEMERIS_TYPE = 0
CLASSIFICATION_TYPE = U
NORAD_CAT_ID   = 67564
ELEMENT_SET_NO = 999
REV_AT_EPOCH   = 372
BSTAR          = .88604E-3
MEAN_MOTION_DOT = .173563E-2
MEAN_MOTION_DDOT = 0

CCSDS_OMM_VERS = 2.0
CREATION_DATE  = 
ORIGINATOR     = 

OBJECT_NAME    = STARLINK-35725
OBJECT_ID      = 2026-016E
CENTER_NAME    = EARTH
REF_FRAME      = TEME
TIME_SYSTEM    = UTC
MEAN_ELEMENT_THEORY = SGP/SGP4

EPOCH          = 2026-02-18T03:32:53.191968
MEAN_MOTION    = 15.75241683
ECCENTRICITY   = .0001571
INCLINATION    = 97.2835
RA_OF_ASC_NODE = 108.6175
ARG_OF_PERICENTER = 84.6192
MEAN_ANOMALY   = 275.5253

EPHEMERIS_TYPE = 0
CLASSIFICATION_TYPE = U
NORAD_CAT_ID   = 67565
ELEMENT_SET_NO = 999
REV_AT_EPOCH   = 372
BSTAR          = .97757E-3
MEAN_MOTION_DOT = .148578E-2
MEAN_MOTION_DDOT = 0

CCSDS_OMM_VERS = 2.0
CREATION_DATE  = 
ORIGINATOR     = 

OBJECT_NAME    = STARLINK-36394
OBJECT_ID      = 2026-016F
CENTER_NAME    = EARTH
REF_FRAME      = TEME
TIME_SYSTEM    = UTC
MEAN_ELEMENT_THEORY = SGP/SGP4

EPOCH          = 2026-02-18T03:35:25.517760
MEAN_MOTION    = 15.75219305
ECCENTRICITY   = .0001187
INCLINATION    = 97.2844
RA_OF_ASC_NODE = 108.6120
ARG_OF_PERICENTER = 51.8138
MEAN_ANOMALY   = 308.3234

EPHEMERIS_TYPE = 0
CLASSIFICATION_TYPE = U
NORAD_CAT_ID   = 67566
ELEMENT_SET_NO = 999
REV_AT_EPOCH   = 372
BSTAR          = .80652E-3
MEAN_MOTION_DOT = .122055E-2
MEAN_MOTION_DDOT = 0

CCSDS_OMM_VERS = 2.0
CREATION_DATE  = 
ORIGINATOR     = 

OBJECT_NAME    = STARLINK-36352
OBJECT_ID      = 2026-016G
CENTER_NAME    = EARTH
REF_FRAME      = TEME
TIME_SYSTEM    = UTC
MEAN_ELEMENT_THEORY = SGP/SGP4

EPOCH          = 2026-02-18T03:01:20.044416
MEAN_MOTION    = 15.80902355
ECCENTRICITY   = .0001054
INCLINATION    = 97.2833
RA_OF_ASC_NODE = 108.6453
ARG_OF_PERICENTER = 101.3592
MEAN_ANOMALY   = 258.7795

EPHEMERIS_TYPE = 0
CLASSIFICATION_TYPE = U
NORAD_CAT_ID   = 67567
ELEMENT_SET_NO = 999
REV_AT_EPOCH   = 372
BSTAR          = .10849E-2
MEAN_MOTION_DOT = .213668E-2
MEAN_MOTION_DDOT = 0

CCSDS_OMM_VERS = 2.0
CREATION_DATE  = 
ORIGINATOR     = 

OBJECT_NAME    = STARLINK-36435
OBJECT_ID      = 2026-016H
CENTER_NAME    = EARTH
REF_FRAME      = TEME
TIME_SYSTEM    = UTC
MEAN_ELEMENT_THEORY = SGP/SGP4

EPOCH          = 2026-02-18T02:58:05.105280
MEAN_MOTION    = 15.80964595
ECCENTRICITY   = .0000749
INCLINATION    = 97.2832
RA_OF_ASC_NODE = 108.6480
ARG_OF_PERICENTER = 140.9960
MEAN_ANOMALY   = 219.1363

EPHEMERIS_TYPE = 0
CLASSIFICATION_TYPE = U
NORAD_CAT_ID   = 67568
ELEMENT_SET_NO = 999
REV_AT_EPOCH   = 372
BSTAR          = .15098E-2
MEAN_MOTION_DOT = .301319E-2
MEAN_MOTION_DDOT = 0

CCSDS_OMM_VERS = 2.0
CREATION_DATE  = 
ORIGINATOR     = 

OBJECT_NAME    = STARLINK-36575
OBJECT_ID      = 2026-016J
CENTER_NAME    = EARTH
REF_FRAME      = TEME
TIME_SYSTEM    = UTC
MEAN_ELEMENT_THEORY = SGP/SGP4

EPOCH          = 2026-02-18T02:56:20.980320
MEAN_MOTION    = 15.80881463
ECCENTRICITY   = .000184
INCLINATION    = 97.2829
RA_OF_ASC_NODE = 108.6537
ARG_OF_PERICENTER = 121.3001
MEAN_ANOMALY   = 238.8447

EPHEMERIS_TYPE = 0
CLASSIFICATION_TYPE = U
NORAD_CAT_ID   = 67569
ELEMENT_SET_NO = 999
REV_AT_EPOCH   = 372
BSTAR          = .53921E-3
MEAN_MOTION_DOT = .104707E-2
MEAN_MOTION_DDOT = 0

